QZS-1R                  
1 49336U 21096A   23304.76319174 -.00000244  00000+0  00000+0 0  9992
2 49336  35.4742  94.0342 0748109 270.3095  85.4366  1.00273186  7398
